[{"OBJECT_NAME":"HERMES-3","OBJECT_ID":"2025-052BR","EPOCH":"2026-03-09T22:30:01.073952","MEAN_MOTION":15.30039786,"ECCENTRICITY":0.00079928,"INCLINATION":97.3987,"RA_OF_ASC_NODE":324.6131,"ARG_OF_PERICENTER":112.9583,"MEAN_ANOMALY":247.2502,"EPHEMERIS_TYPE":0,"CLASSIFICATION_TYPE":"U","NORAD_CAT_ID":63835,"ELEMENT_SET_NO":999,"REV_AT_EPOCH":5486,"BSTAR":0.0006995793,"MEAN_MOTION_DOT":0.00020316,"MEAN_MOTION_DDOT":0},{"OBJECT_NAME":"STARLINK-35561","OBJECT_ID":"2025-236V","EPOCH":"2026-03-09T11:50:24.880128","MEAN_MOTION":15.30198348,"ECCENTRICITY":0.00013029,"INCLINATION":53.159,"RA_OF_ASC_NODE":104.845,"ARG_OF_PERICENTER":86.9151,"MEAN_ANOMALY":273.1999,"EPHEMERIS_TYPE":0,"CLASSIFICATION_TYPE":"U","NORAD_CAT_ID":66105,"ELEMENT_SET_NO":999,"REV_AT_EPOCH":2285,"BSTAR":0.00092198659,"MEAN_MOTION_DOT":0.00027045,"MEAN_MOTION_DDOT":0}]
